{"type": "FeatureCollection", "features": [ {"type": "Feature", "properties": {"norad_id": 54234, "name": "NOAA 21 (JPSS-2)", "group": "weather", "lat": 78.09322512808062, "lon": 146.4809715036038, "alt_km": 818.6238336915612, "timestamp": "2025-12-09T05:43:20.370220+00:00", "meta": {"OBJECT_NAME": "NOAA 21 (JPSS-2)", "OBJECT_ID": "2022-150A", "EPOCH": "2025-12-08T19:06:43.826112", "MEAN_MOTION": 14.19522752, "ECCENTRICITY": 0.0002372, "INCLINATION": 98.7457, "RA_OF_ASC_NODE": 279.1539, "ARG_OF_PERICENTER": 45.7005, "MEAN_ANOMALY": 314.4365, "EPHEMERIS_TYPE": 0, "CLASSIFICATION_TYPE": "U", "NORAD_CAT_ID": 54234, "ELEMENT_SET_NO": 999, "REV_AT_EPOCH": 15953, "BSTAR": 0.00013534, "MEAN_MOTION_DOT": 2.41e-06, "MEAN_MOTION_DDOT": 0}, "tle": {"line1": "1 54234U 22150A   25342.79634058  .00000241  00000+0  13534-3 0  9991", "line2": "2 54234  98.7457 279.1539 0002372  45.7005 314.4365 14.19522752159538"}}, "geometry": {"type": "Point", "coordinates": [146.4809715036038, 78.09322512808062]}}, {"type": "Feature", "properties": {"norad_id": 54743, "name": "METEOSAT-12 (MTG-I1)", "group": "weather", "lat": 0.5323746927604012, "lon": 163.82802446165567, "alt_km": 35785.17808700158, "timestamp": "2025-12-09T05:43:20.370243+00:00", "meta": {"OBJECT_NAME": "METEOSAT-12 (MTG-I1)", "OBJECT_ID": "2022-170C", "EPOCH": "2025-12-08T18:44:23.832096", "MEAN_MOTION": 1.00275009, "ECCENTRICITY": 0.0001468, "INCLINATION": 0.726, "RA_OF_ASC_NODE": 30.9723, "ARG_OF_PERICENTER": 223.6162, "MEAN_ANOMALY": 104.0649, "EPHEMERIS_TYPE": 0, "CLASSIFICATION_TYPE": "U", "NORAD_CAT_ID": 54743, "ELEMENT_SET_NO": 999, "REV_AT_EPOCH": 1106, "BSTAR": 0, "MEAN_MOTION_DOT": -4e-08, "MEAN_MOTION_DDOT": 0}, "tle": {"line1": "1 54743U 22170C   25342.78083139 -.00000004  00000+0  00000+0 0  9993", "line2": "2 54743   0.7260  30.9723 0001468 223.6162 104.0649  1.00275009 11061"}}, "geometry": {"type": "Point", "coordinates": [163.82802446165567, 0.5323746927604012]}}, {"type": "Feature", "properties": {"norad_id": 55973, "name": "TIANMU-1 03", "group": "weather", "lat": -62.01305636576177, "lon": 160.16886932951323, "alt_km": 453.1814272895999, "timestamp": "2025-12-09T05:43:20.370271+00:00", "meta": {"OBJECT_NAME": "TIANMU-1 03", "OBJECT_ID": "2023-039A", "EPOCH": "2025-12-08T20:38:35.308896", "MEAN_MOTION": 15.40750757, "ECCENTRICITY": 0.0004514, "INCLINATION": 97.5111, "RA_OF_ASC_NODE": 145.4041, "ARG_OF_PERICENTER": 72.1177, "MEAN_ANOMALY": 288.0561, "EPHEMERIS_TYPE": 0, "CLASSIFICATION_TYPE": "U", "NORAD_CAT_ID": 55973, "ELEMENT_SET_NO": 999, "REV_AT_EPOCH": 15146, "BSTAR": 0.00052779, "MEAN_MOTION_DOT": 0.00021537, "MEAN_MOTION_DDOT": 0}, "tle": {"line1": "1 55973U 23039A   25342.86013089  .00021537  00000+0  52779-3 0  9997", "line2": "2 55973  97.5111 145.4041 0004514  72.1177 288.0561 15.40750757151461"}}, "geometry": {"type": "Point", "coordinates": [160.16886932951323, -62.01305636576177]}}, {"type": "Feature", "properties": {"norad_id": 55974, "name": "TIANMU-1 04", "group": "weather", "lat": 46.261971778641204, "lon": 137.06675647131618, "alt_km": 435.5521283422495, "timestamp": "2025-12-09T05:43:20.370288+00:00", "meta": {"OBJECT_NAME": "TIANMU-1 04", "OBJECT_ID": "2023-039B", "EPOCH": "2025-12-08T20:10:12.269856", "MEAN_MOTION": 15.4108376, "ECCENTRICITY": 0.0005179, "INCLINATION": 97.5044, "RA_OF_ASC_NODE": 144.5764, "ARG_OF_PERICENTER": 67.5905, "MEAN_ANOMALY": 292.589, "EPHEMERIS_TYPE": 0, "CLASSIFICATION_TYPE": "U", "NORAD_CAT_ID": 55974, "ELEMENT_SET_NO": 999, "REV_AT_EPOCH": 15146, "BSTAR": 0.00051295, "MEAN_MOTION_DOT": 0.00021163, "MEAN_MOTION_DDOT": 0}, "tle": {"line1": "1 55974U 23039B   25342.84041979  .00021163  00000+0  51295-3 0  9992", "line2": "2 55974  97.5044 144.5764 0005179  67.5905 292.5890 15.41083760151463"}}, "geometry": {"type": "Point", "coordinates": [137.06675647131618, 46.261971778641204]}}, {"type": "Feature", "properties": {"norad_id": 55975, "name": "TIANMU-1 05", "group": "weather", "lat": 80.08643425687829, "lon": 96.4753410784387, "alt_km": 433.6091551360996, "timestamp": "2025-12-09T05:43:20.370304+00:00", "meta": {"OBJECT_NAME": "TIANMU-1 05", "OBJECT_ID": "2023-039C", "EPOCH": "2025-12-08T20:00:32.527584", "MEAN_MOTION": 15.4070716, "ECCENTRICITY": 0.0004375, "INCLINATION": 97.509, "RA_OF_ASC_NODE": 145.0616, "ARG_OF_PERICENTER": 88.6368, "MEAN_ANOMALY": 271.538, "EPHEMERIS_TYPE": 0, "CLASSIFICATION_TYPE": "U", "NORAD_CAT_ID": 55975, "ELEMENT_SET_NO": 999, "REV_AT_EPOCH": 15144, "BSTAR": 0.00051255, "MEAN_MOTION_DOT": 0.00020881, "MEAN_MOTION_DDOT": 0}, "tle": {"line1": "1 55975U 23039C   25342.83370981  .00020881  00000+0  51255-3 0  9992", "line2": "2 55975  97.5090 145.0616 0004375  88.6368 271.5380 15.40707160151446"}}, "geometry": {"type": "Point", "coordinates": [96.4753410784387, 80.08643425687829]}}, {"type": "Feature", "properties": {"norad_id": 55976, "name": "TIANMU-1 06", "group": "weather", "lat": 33.69538310862767, "lon": 140.89292797604503, "alt_km": 438.56438508335214, "timestamp": "2025-12-09T05:43:20.370321+00:00", "meta": {"OBJECT_NAME": "TIANMU-1 06", "OBJECT_ID": "2023-039D", "EPOCH": "2025-12-08T20:13:31.577376", "MEAN_MOTION": 15.41136287, "ECCENTRICITY": 0.0004691, "INCLINATION": 97.5101, "RA_OF_ASC_NODE": 145.5329, "ARG_OF_PERICENTER": 84.2319, "MEAN_ANOMALY": 275.9462, "EPHEMERIS_TYPE": 0, "CLASSIFICATION_TYPE": "U", "NORAD_CAT_ID": 55976, "ELEMENT_SET_NO": 999, "REV_AT_EPOCH": 15146, "BSTAR": 0.00051183, "MEAN_MOTION_DOT": 0.00021152, "MEAN_MOTION_DDOT": 0}, "tle": {"line1": "1 55976U 23039D   25342.84272659  .00021152  00000+0  51183-3 0  9999", "line2": "2 55976  97.5101 145.5329 0004691  84.2319 275.9462 15.41136287151463"}}, "geometry": {"type": "Point", "coordinates": [140.89292797604503, 33.69538310862767]}}, {"type": "Feature", "properties": {"norad_id": 56232, "name": "FENGYUN 3G", "group": "weather", "lat": -45.54599556505209, "lon": -173.35762167355978, "alt_km": 417.1446914837552, "timestamp": "2025-12-09T05:43:20.370341+00:00", "meta": {"OBJECT_NAME": "FENGYUN 3G", "OBJECT_ID": "2023-055A", "EPOCH": "2025-12-08T20:45:16.542720", "MEAN_MOTION": 15.53294978, "ECCENTRICITY": 0.0009245, "INCLINATION": 49.9937, "RA_OF_ASC_NODE": 247.4467, "ARG_OF_PERICENTER": 130.1186, "MEAN_ANOMALY": 230.0593, "EPHEMERIS_TYPE": 0, "CLASSIFICATION_TYPE": "U", "NORAD_CAT_ID": 56232, "ELEMENT_SET_NO": 999, "REV_AT_EPOCH": 15042, "BSTAR": 0.00061782, "MEAN_MOTION_DOT": 0.00039524, "MEAN_MOTION_DDOT": 0}, "tle": {"line1": "1 56232U 23055A   25342.86477480  .00039524  00000+0  61782-3 0  9992", "line2": "2 56232  49.9937 247.4467 0009245 130.1186 230.0593 15.53294978150422"}}, "geometry": {"type": "Point", "coordinates": [-173.35762167355978, -45.54599556505209]}}, {"type": "Feature", "properties": {"norad_id": 57166, "name": "METEOR-M2 3", "group": "weather", "lat": -51.29440166790867, "lon": 47.77479040004775, "alt_km": 817.675854335569, "timestamp": "2025-12-09T05:43:20.370358+00:00", "meta": {"OBJECT_NAME": "METEOR-M2 3", "OBJECT_ID": "2023-091A", "EPOCH": "2025-12-08T19:50:55.032576", "MEAN_MOTION": 14.24025445, "ECCENTRICITY": 0.0004132, "INCLINATION": 98.6384, "RA_OF_ASC_NODE": 36.4346, "ARG_OF_PERICENTER": 19.5978, "MEAN_ANOMALY": 340.5359, "EPHEMERIS_TYPE": 0, "CLASSIFICATION_TYPE": "U", "NORAD_CAT_ID": 57166, "ELEMENT_SET_NO": 999, "REV_AT_EPOCH": 12742, "BSTAR": 4.2182e-05, "MEAN_MOTION_DOT": 5.3e-07, "MEAN_MOTION_DDOT": 0}, "tle": {"line1": "1 57166U 23091A   25342.82702584  .00000053  00000+0  42182-4 0  9990", "line2": "2 57166  98.6384  36.4346 0004132  19.5978 340.5359 14.24025445127426"}}, "geometry": {"type": "Point", "coordinates": [47.77479040004775, -51.29440166790867]}}, {"type": "Feature", "properties": {"norad_id": 57399, "name": "TIANMU-1 07", "group": "weather", "lat": -81.84581773453824, "lon": 149.89629014611683, "alt_km": 493.04513525173934, "timestamp": "2025-12-09T05:43:20.370375+00:00", "meta": {"OBJECT_NAME": "TIANMU-1 07", "OBJECT_ID": "2023-101A", "EPOCH": "2025-12-08T20:42:06.752160", "MEAN_MOTION": 15.27986697, "ECCENTRICITY": 0.0005644, "INCLINATION": 97.2876, "RA_OF_ASC_NODE": 32.7978, "ARG_OF_PERICENTER": 91.2701, "MEAN_ANOMALY": 268.9185, "EPHEMERIS_TYPE": 0, "CLASSIFICATION_TYPE": "U", "NORAD_CAT_ID": 57399, "ELEMENT_SET_NO": 999, "REV_AT_EPOCH": 13256, "BSTAR": 0.00040718, "MEAN_MOTION_DOT": 0.00011055, "MEAN_MOTION_DDOT": 0}, "tle": {"line1": "1 57399U 23101A   25342.86257815  .00011055  00000+0  40718-3 0  9992", "line2": "2 57399  97.2876  32.7978 0005644  91.2701 268.9185 15.27986697132565"}}, "geometry": {"type": "Point", "coordinates": [149.89629014611683, -81.84581773453824]}}, {"type": "Feature", "properties": {"norad_id": 57400, "name": "TIANMU-1 08", "group": "weather", "lat": 82.50380748978478, "lon": -43.543539940596126, "alt_km": 469.220188080797, "timestamp": "2025-12-09T05:43:20.370391+00:00", "meta": {"OBJECT_NAME": "TIANMU-1 08", "OBJECT_ID": "2023-101B", "EPOCH": "2025-12-08T19:54:27.206784", "MEAN_MOTION": 15.27970126, "ECCENTRICITY": 0.0007562, "INCLINATION": 97.2865, "RA_OF_ASC_NODE": 32.5643, "ARG_OF_PERICENTER": 94.7004, "MEAN_ANOMALY": 265.51, "EPHEMERIS_TYPE": 0, "CLASSIFICATION_TYPE": "U", "NORAD_CAT_ID": 57400, "ELEMENT_SET_NO": 999, "REV_AT_EPOCH": 13255, "BSTAR": 0.00042171, "MEAN_MOTION_DOT": 0.00011451, "MEAN_MOTION_DDOT": 0}, "tle": {"line1": "1 57400U 23101B   25342.82948156  .00011451  00000+0  42171-3 0  9991", "line2": "2 57400  97.2865  32.5643 0007562  94.7004 265.5100 15.27970126132557"}}, "geometry": {"type": "Point", "coordinates": [-43.543539940596126, 82.50380748978478]}}]}